STARLINK-1643
1 16136C 20057V   21326.07831630  .00004021  00000-0  26950-3 0  3262
2 16136  53.0505 148.3967 0002054  81.1789 170.9978 15.06381483    14
